*******************************************************************************
 Revised: June 21, 2016                 Mars                            499 / 4
 
 PHYSICAL DATA (updated 2019-Oct-29):
  Vol. mean radius (km) = 3389.92+-0.04   Density (g/cm^3)      =  3.933(5+-4)
  Mass x10^23 (kg)      =    6.4171       Flattening, f         =  1/169.779
  Volume (x10^10 km^3)  =   16.318        Equatorial radius (km)=  3396.19
  Sidereal rot. period  =   24.622962 hr  Sid. rot. rate, rad/s =  0.0000708822 
  Mean solar day (sol)  =   88775.24415 s Polar gravity m/s^2   =  3.758
  Core radius (km)      = ~1700           Equ. gravity  m/s^2   =  3.71
  Geometric Albedo      =    0.150                                              

  GM (km^3/s^2)         = 42828.375214    Mass ratio (Sun/Mars) = 3098703.59
  GM 1-sigma (km^3/s^2) = +- 0.00028      Mass of atmosphere, kg= ~ 2.5 x 10^16
  Mean temperature (K)  =  210            Atmos. pressure (bar) =    0.0056 
  Obliquity to orbit    =   25.19 deg     Max. angular diam.    =  17.9"
  Mean sidereal orb per =    1.88081578 y Visual mag. V(1,0)    =  -1.52
  Mean sidereal orb per =  686.98 d       Orbital speed,  km/s  =  24.13
  Hill's sphere rad. Rp =  319.8          Escape speed, km/s    =   5.027
                                 Perihelion  Aphelion    Mean
  Solar Constant (W/m^2)         717         493         589
  Maximum Planetary IR (W/m^2)   470         315         390
  Minimum Planetary IR (W/m^2)    30          30          30
*******************************************************************************
 
 
*******************************************************************************
Ephemeris / WWW_USER Fri Jun 19 18:05:28 2020 Pasadena, USA      / Horizons
*******************************************************************************
Target body name: Mars (499)                      {source: mar097}
Center body name: Solar System Barycenter (0)     {source: DE431mx}
Center-site name: BODY CENTER
*******************************************************************************
Start time      : A.D. 1969-Jun-28 00:00:00.0000 TDB
Stop  time      : A.D. 2071-May-04 00:00:00.0000 TDB
Step-size       : 7200 minutes
*******************************************************************************
Center geodetic : 0.00000000,0.00000000,0.0000000 {E-lon(deg),Lat(deg),Alt(km)}
Center cylindric: 0.00000000,0.00000000,0.0000000 {E-lon(deg),Dxy(km),Dz(km)}
Center radii    : (undefined)                                                  
Output units    : AU-D
Output type     : GEOMETRIC cartesian states
Output format   : 2 (position and velocity)
Reference frame : Ecliptic of J2000.0
*******************************************************************************
            JDTDB,            Calendar Date (TDB),        delta-T,                      X,                      Y,                      Z,                     VX,                     VY,                     VZ,
******************************************************************************************************************************************************************************************************************
$$SOE
2446290.500000000, A.D. 1985-Aug-13 00:00:00.0000,      55.182966, -9.996403629001064E-01,  1.315255188045279E+00,  5.185631515088270E-02, -1.059753593719622E-02, -7.308246484938482E-03,  1.078471121379779E-04,
2446295.500000000, A.D. 1985-Aug-18 00:00:00.0000,      55.182860, -1.051786096336366E+00,  1.277640558664433E+00,  5.235235381755739E-02, -1.025819018025830E-02, -7.735138457399210E-03,  9.055683059068081E-05,
2446300.500000000, A.D. 1985-Aug-23 00:00:00.0000,      55.182761, -1.102197089517940E+00,  1.237928782174839E+00,  5.276178701271948E-02, -9.903739127261058E-03, -8.147043843982489E-03,  7.320867035552868E-05,
2446305.500000000, A.D. 1985-Aug-28 00:00:00.0000,      55.182668, -1.150799299839267E+00,  1.196195699254955E+00,  5.308438088790584E-02, -9.534775263628356E-03, -8.543602289367279E-03,  5.582474176713189E-05,
2446310.500000000, A.D. 1985-Sep-02 00:00:00.0000,      55.182585, -1.197521632331010E+00,  1.152518912647829E+00,  5.332001104146090E-02, -9.151885269700183E-03, -8.924469153857880E-03,  3.842674319132177E-05,
2446315.500000000, A.D. 1985-Sep-07 00:00:00.0000,      55.182512, -1.242295910892318E+00,  1.106977711785151E+00,  5.346866023434619E-02, -8.755650119494330E-03, -9.289314063313903E-03,  2.103587567566420E-05,
2446320.500000000, A.D. 1985-Sep-12 00:00:00.0000,      55.182452, -1.285056851527375E+00,  1.059653004612407E+00,  5.353041631131379E-02, -8.346645666572283E-03, -9.637819763200025E-03,  3.672930893950021E-06,
2446325.500000000, A.D. 1985-Sep-17 00:00:00.0000,      55.182404, -1.325742038028081E+00,  1.010627256126632E+00,  5.350547031063584E-02, -7.925443312155658E-03, -9.969680577610421E-03, -1.364158520860010E-05,
2446330.500000000, A.D. 1985-Sep-22 00:00:00.0000,      55.182366, -1.364291900538026E+00,  9.599844331284647E-01,  5.339411477723757E-02, -7.492610362872542E-03, -1.028460118412287E-02, -3.088753336810721E-05,
2446335.500000000, A.D. 1985-Sep-27 00:00:00.0000,      55.182339, -1.400649697364372E+00,  9.078099547176113E-01,  5.319674228554414E-02, -7.048710802458135E-03, -1.058229578868304E-02, -4.804507908012676E-05,
2446340.500000000, A.D. 1985-Oct-02 00:00:00.0000,      55.182323, -1.434761500385560E+00,  8.541906480153805E-01,  5.291384415288054E-02, -6.594306232423090E-03, -1.086248692354857E-02, -6.509454994426588E-05,
2446345.500000000, A.D. 1985-Oct-07 00:00:00.0000,      55.182320, -1.466576184451507E+00,  7.992147086251935E-01,  5.254600935041957E-02, -6.129956459114026E-03, -1.112490445101746E-02, -8.201650832999753E-05,
2446350.500000000, A.D. 1985-Oct-12 00:00:00.0000,      55.182331, -1.496045421102997E+00,  7.429716654208577E-01,  5.209392361601518E-02, -5.656220415353985E-03, -1.136928502658240E-02, -9.879171883579113E-05,
2446355.500000000, A.D. 1985-Oct-17 00:00:00.0000,      55.182355, -1.523123676845192E+00,  6.855523491996151E-01,  5.155836874720367E-02, -5.173657316802676E-03, -1.159537122026970E-02, -1.154009939881653E-04,
2446360.500000000, A.D. 1985-Oct-22 00:00:00.0000,      55.182390, -1.547768216231385E+00,  6.270488646962614E-01,  5.094022207824658E-02, -4.682827422270442E-03, -1.180291074221650E-02, -1.318252542628129E-04,
2446365.500000000, A.D. 1985-Oct-27 00:00:00.0000,      55.182436, -1.569939109975362E+00,  5.675545655068864E-01,  5.024045614924919E-02, -4.184293030714612E-03, -1.199165619228600E-02, -1.480455241961383E-04,
2446370.500000000, A.D. 1985-Nov-01 00:00:00.0000,      55.182493, -1.589599248237156E+00,  5.071640314099775E-01,  4.946013854677336E-02, -3.678619781892103E-03, -1.216136454125399E-02, -1.640427718970103E-04,
2446375.500000000, A.D. 1985-Nov-06 00:00:00.0000,      55.182563, -1.606714359288332E+00,  4.459730475016530E-01,  4.860043191646654E-02, -3.166377563637888E-03, -1.231179662339560E-02, -1.797979517413104E-04,
2446380.500000000, A.D. 1985-Nov-11 00:00:00.0000,      55.182644, -1.621253033801728E+00,  3.840785846273133E-01,  4.766259415743657E-02, -2.648141578138943E-03, -1.244271719615777E-02, -1.952920276248958E-04,
2446385.500000000, A.D. 1985-Nov-16 00:00:00.0000,      55.182737, -1.633186754963877E+00,  3.215787805938181E-01,  4.664797877567203E-02, -2.124493791046768E-03, -1.255389480613682E-02, -2.105058137776810E-04,
2446390.500000000, A.D. 1985-Nov-21 00:00:00.0000,      55.182838, -1.642489934632091E+00,  2.585729216082006E-01,  4.555803538791384E-02, -1.596024012379200E-03, -1.264510155489855E-02, -2.254199989728854E-04,
2446395.500000000, A.D. 1985-Nov-26 00:00:00.0000,      55.182946, -1.649139955743350E+00,  1.951614234497250E-01,  4.439431038332329E-02, -1.063331028733736E-03, -1.271611344223217E-02, -2.400151966953804E-04,
2446400.500000000, A.D. 1985-Dec-01 00:00:00.0000,      55.183062, -1.653117221077802E+00,  1.314458118563293E-01,  4.315844771984982E-02, -5.270241484380185E-04, -1.276671061525292E-02, -2.542717954459332E-04,
2446405.500000000, A.D. 1985-Dec-06 00:00:00.0000,      55.183187, -1.654405208478612E+00,  6.752870150708858E-02,  4.185218984131691E-02,  1.227559509530507E-05, -1.279667744067344E-02, -2.681699632965923E-04,
2446410.500000000, A.D. 1985-Dec-11 00:00:00.0000,      55.183319, -1.652990532652012E+00,  3.513773001667539E-03,  4.047737872207664E-02,  5.539342961449436E-04, -1.280580316631815E-02, -2.816897222361140E-04,
2446415.500000000, A.D. 1985-Dec-16 00:00:00.0000,      55.183457, -1.648863013600980E+00, -6.049425277786087E-02,  3.903595701621658E-02,  1.097303591971501E-03, -1.279388260926658E-02, -2.948108151258211E-04,
2446420.500000000, A.D. 1985-Dec-21 00:00:00.0000,      55.183597, -1.642015751740179E+00, -1.243896436272374E-01,  3.752996929093100E-02,  1.641719365336897E-03, -1.276071660349401E-02, -3.075126907447551E-04,
2446425.500000000, A.D. 1985-Dec-26 00:00:00.0000,      55.183740, -1.632445209743919E+00, -1.880656889846624E-01,  3.596156334987224E-02,  2.186500612863677E-03, -1.270611302044551E-02, -3.197745989797079E-04,
2446430.500000000, A.D. 1985-Dec-31 00:00:00.0000,      55.183884, -1.620151301072306E+00, -2.514147375936976E-01,  3.433299162499615E-02,  2.730947888719702E-03, -1.262988794197920E-02, -3.315754810074276E-04,
2446435.500000000, A.D. 1986-Jan-05 00:00:00.0000,      55.184030, -1.605137485094229E+00, -3.143282406803633E-01,  3.264661260790295E-02,  3.274341976945886E-03, -1.253186655755937E-02, -3.428939370356432E-04,
2446440.500000000, A.D. 1986-Jan-10 00:00:00.0000,      55.184177, -1.587410868764096E+00, -3.766968014668354E-01,  3.090489231743799E-02,  3.815942829329322E-03, -1.241188460783675E-02, -3.537083411703067E-04,
